{
"type": "FeatureCollection",
"name": "candidates_J",
"crs": { "type": "name", "properties": { "name": "urn:ogc:def:crs:OGC:1.3:CRS84" } },
"features": [
{ "type": "Feature", "properties": { "nama": "Pertamina", "klaster": "A_SPBU", "nearest_node": 29358830, "dist_to_node_m": 26.295943310996144 }, "geometry": { "type": "Point", "coordinates": [ 107.6020333, -6.8876837 ] } },
{ "type": "Feature", "properties": { "nama": "Pertamina", "klaster": "A_SPBU", "nearest_node": 11369618809, "dist_to_node_m": 36.539645272688027 }, "geometry": { "type": "Point", "coordinates": [ 107.5858523, -6.9070048 ] } },
{ "type": "Feature", "properties": { "nama": "Pertamina", "klaster": "A_SPBU", "nearest_node": 2493836067, "dist_to_node_m": 33.149404233272975 }, "geometry": { "type": "Point", "coordinates": [ 107.6343231, -6.8997316 ] } },
{ "type": "Feature", "properties": { "nama": "Pertamina", "klaster": "A_SPBU", "nearest_node": 29358935, "dist_to_node_m": 34.532038925134714 }, "geometry": { "type": "Point", "coordinates": [ 107.5987095, -6.8806043 ] } },
{ "type": "Feature", "properties": { "nama": "Pertamina", "klaster": "A_SPBU", "nearest_node": 5348142890, "dist_to_node_m": 22.169700581911975 }, "geometry": { "type": "Point", "coordinates": [ 107.5840572, -6.9185944 ] } },
{ "type": "Feature", "properties": { "nama": "Pertamina", "klaster": "A_SPBU", "nearest_node": 3277378563, "dist_to_node_m": 29.777133780928732 }, "geometry": { "type": "Point", "coordinates": [ 107.6184175, -6.9165401 ] } },
{ "type": "Feature", "properties": { "nama": "Pertamina", "klaster": "A_SPBU", "nearest_node": 5460962109, "dist_to_node_m": 39.646809280883609 }, "geometry": { "type": "Point", "coordinates": [ 107.6814323, -6.9669124 ] } },
{ "type": "Feature", "properties": { "nama": "Pertamina", "klaster": "A_SPBU", "nearest_node": 3807746818, "dist_to_node_m": 28.221975931501142 }, "geometry": { "type": "Point", "coordinates": [ 107.6208132, -6.8689864 ] } },
{ "type": "Feature", "properties": { "nama": "Pertamina", "klaster": "A_SPBU", "nearest_node": 5458737558, "dist_to_node_m": 37.984965306934718 }, "geometry": { "type": "Point", "coordinates": [ 107.5816606, -6.8890673 ] } },
{ "type": "Feature", "properties": { "nama": "Pertamina", "klaster": "A_SPBU", "nearest_node": 3272299574, "dist_to_node_m": 30.224534435620409 }, "geometry": { "type": "Point", "coordinates": [ 107.625816, -6.9492397 ] } },
{ "type": "Feature", "properties": { "nama": "Pertamina", "klaster": "A_SPBU", "nearest_node": 1982778316, "dist_to_node_m": 14.573802854096346 }, "geometry": { "type": "Point", "coordinates": [ 107.6117403, -6.9548757 ] } },
{ "type": "Feature", "properties": { "nama": "Pertamina", "klaster": "A_SPBU", "nearest_node": 3357368464, "dist_to_node_m": 34.244848159151651 }, "geometry": { "type": "Point", "coordinates": [ 107.6256199, -6.8910576 ] } },
{ "type": "Feature", "properties": { "nama": "Pertamina", "klaster": "A_SPBU", "nearest_node": 4620173045, "dist_to_node_m": 51.435430539887967 }, "geometry": { "type": "Point", "coordinates": [ 107.6734695, -6.9045444 ] } },
{ "type": "Feature", "properties": { "nama": "Pertamina", "klaster": "A_SPBU", "nearest_node": 7284309270, "dist_to_node_m": 73.550802062803015 }, "geometry": { "type": "Point", "coordinates": [ 107.7120823, -6.9289714 ] } },
{ "type": "Feature", "properties": { "nama": "Pertamina", "klaster": "A_SPBU", "nearest_node": 2520649152, "dist_to_node_m": 57.223861903330402 }, "geometry": { "type": "Point", "coordinates": [ 107.6185972, -6.9057833 ] } },
{ "type": "Feature", "properties": { "nama": "Pertamina", "klaster": "A_SPBU", "nearest_node": 5395278919, "dist_to_node_m": 31.46907469128951 }, "geometry": { "type": "Point", "coordinates": [ 107.6440384, -6.9223889 ] } },
{ "type": "Feature", "properties": { "nama": "Pertamina", "klaster": "A_SPBU", "nearest_node": 7205262601, "dist_to_node_m": 35.32245189614386 }, "geometry": { "type": "Point", "coordinates": [ 107.6517728, -6.9136217 ] } },
{ "type": "Feature", "properties": { "nama": "Pertamina", "klaster": "A_SPBU", "nearest_node": 3278023502, "dist_to_node_m": 29.384387474520437 }, "geometry": { "type": "Point", "coordinates": [ 107.644464, -6.9183776 ] } },
{ "type": "Feature", "properties": { "nama": "Pertamina", "klaster": "A_SPBU", "nearest_node": 5394983543, "dist_to_node_m": 49.33365614447218 }, "geometry": { "type": "Point", "coordinates": [ 107.6589018, -6.9136483 ] } },
{ "type": "Feature", "properties": { "nama": "Pertamina", "klaster": "A_SPBU", "nearest_node": 2477666621, "dist_to_node_m": 84.857963433785073 }, "geometry": { "type": "Point", "coordinates": [ 107.5746074, -6.9129281 ] } },
{ "type": "Feature", "properties": { "nama": "Pertamina", "klaster": "A_SPBU", "nearest_node": 2477162528, "dist_to_node_m": 34.183995011520018 }, "geometry": { "type": "Point", "coordinates": [ 107.6419203, -6.8992841 ] } },
{ "type": "Feature", "properties": { "nama": "Pertamina", "klaster": "A_SPBU", "nearest_node": 6485352111, "dist_to_node_m": 67.486056285695597 }, "geometry": { "type": "Point", "coordinates": [ 107.5748775, -6.9266538 ] } },
{ "type": "Feature", "properties": { "nama": "Pertamina", "klaster": "A_SPBU", "nearest_node": 9336898538, "dist_to_node_m": 29.742287347086585 }, "geometry": { "type": "Point", "coordinates": [ 107.6951878, -6.9138016 ] } },
{ "type": "Feature", "properties": { "nama": "Pertamina", "klaster": "A_SPBU", "nearest_node": 6411468691, "dist_to_node_m": 25.798675735335717 }, "geometry": { "type": "Point", "coordinates": [ 107.6379847, -6.9522858 ] } },
{ "type": "Feature", "properties": { "nama": "Pertamina", "klaster": "A_SPBU", "nearest_node": 5865112018, "dist_to_node_m": 26.972517022626629 }, "geometry": { "type": "Point", "coordinates": [ 107.6650947, -6.9041715 ] } },
{ "type": "Feature", "properties": { "nama": "Pertamina", "klaster": "A_SPBU", "nearest_node": 5348638966, "dist_to_node_m": 164.26435589647215 }, "geometry": { "type": "Point", "coordinates": [ 107.5820851, -6.9413633 ] } },
{ "type": "Feature", "properties": { "nama": "Pertamina", "klaster": "A_SPBU", "nearest_node": 1849960732, "dist_to_node_m": 48.34259390395151 }, "geometry": { "type": "Point", "coordinates": [ 107.6370205, -6.9121984 ] } },
{ "type": "Feature", "properties": { "nama": "Pertamina", "klaster": "A_SPBU", "nearest_node": 5648631891, "dist_to_node_m": 37.448380346022617 }, "geometry": { "type": "Point", "coordinates": [ 107.5708193, -6.9141507 ] } },
{ "type": "Feature", "properties": { "nama": "Pertamina", "klaster": "A_SPBU", "nearest_node": 3115483150, "dist_to_node_m": 63.190483550023629 }, "geometry": { "type": "Point", "coordinates": [ 107.579498, -6.9294651 ] } },
{ "type": "Feature", "properties": { "nama": "Pertamina", "klaster": "A_SPBU", "nearest_node": 7712789381, "dist_to_node_m": 108.60834370719853 }, "geometry": { "type": "Point", "coordinates": [ 107.6306979, -6.9224243 ] } },
{ "type": "Feature", "properties": { "nama": "Pertamina", "klaster": "A_SPBU", "nearest_node": 10866516960, "dist_to_node_m": 76.207209002604316 }, "geometry": { "type": "Point", "coordinates": [ 107.5859941, -6.8936046 ] } },
{ "type": "Feature", "properties": { "nama": "Pertamina", "klaster": "A_SPBU", "nearest_node": 13860271950, "dist_to_node_m": 43.112769800197221 }, "geometry": { "type": "Point", "coordinates": [ 107.5776794, -6.9295816 ] } },
{ "type": "Feature", "properties": { "nama": "Pertamina", "klaster": "A_SPBU", "nearest_node": 7284403247, "dist_to_node_m": 59.78226534823974 }, "geometry": { "type": "Point", "coordinates": [ 107.7006288, -6.9362243 ] } },
{ "type": "Feature", "properties": { "nama": "Pertamina", "klaster": "A_SPBU", "nearest_node": 11037191227, "dist_to_node_m": 81.552220597010674 }, "geometry": { "type": "Point", "coordinates": [ 107.603771270590343, -6.888660148045807 ] } },
{ "type": "Feature", "properties": { "nama": "Pertamina", "klaster": "A_SPBU", "nearest_node": 6443221336, "dist_to_node_m": 22.898762200661345 }, "geometry": { "type": "Point", "coordinates": [ 107.610319791448646, -6.93634849598755 ] } },
{ "type": "Feature", "properties": { "nama": "Pertamina", "klaster": "A_SPBU", "nearest_node": 3847863679, "dist_to_node_m": 47.276481677458101 }, "geometry": { "type": "Point", "coordinates": [ 107.562920258823809, -6.891755092832251 ] } },
{ "type": "Feature", "properties": { "nama": "Pertamina", "klaster": "A_SPBU", "nearest_node": 5465992888, "dist_to_node_m": 34.392962177730247 }, "geometry": { "type": "Point", "coordinates": [ 107.616588559934655, -6.89080612148574 ] } },
{ "type": "Feature", "properties": { "nama": "Pertamina", "klaster": "A_SPBU", "nearest_node": 3272722525, "dist_to_node_m": 86.443035391327044 }, "geometry": { "type": "Point", "coordinates": [ 107.693941418579868, -6.937482127716943 ] } },
{ "type": "Feature", "properties": { "nama": "Pertamina", "klaster": "A_SPBU", "nearest_node": 2325453481, "dist_to_node_m": 63.385149000127981 }, "geometry": { "type": "Point", "coordinates": [ 107.6625098, -6.9396348 ] } },
{ "type": "Feature", "properties": { "nama": "SPBU Pertamina", "klaster": "A_SPBU", "nearest_node": 11800741164, "dist_to_node_m": 42.381445275229346 }, "geometry": { "type": "Point", "coordinates": [ 107.597016453415364, -6.898091153801956 ] } },
{ "type": "Feature", "properties": { "nama": "Pertamina", "klaster": "A_SPBU", "nearest_node": 11107827260, "dist_to_node_m": 38.827269668243673 }, "geometry": { "type": "Point", "coordinates": [ 107.611946722686724, -6.919876054668785 ] } },
{ "type": "Feature", "properties": { "nama": "Pertamina", "klaster": "A_SPBU", "nearest_node": 3110236069, "dist_to_node_m": 29.610937256972402 }, "geometry": { "type": "Point", "coordinates": [ 107.616808327642275, -6.938256755351195 ] } },
{ "type": "Feature", "properties": { "nama": "Pertamina", "klaster": "A_SPBU", "nearest_node": 5360254236, "dist_to_node_m": 44.296406422732666 }, "geometry": { "type": "Point", "coordinates": [ 107.617822888138136, -6.937694648302467 ] } },
{ "type": "Feature", "properties": { "nama": "Pertamina", "klaster": "A_SPBU", "nearest_node": 3472154933, "dist_to_node_m": 26.254871200963397 }, "geometry": { "type": "Point", "coordinates": [ 107.638743672004267, -6.96059220442012 ] } },
{ "type": "Feature", "properties": { "nama": "Pertamina", "klaster": "A_SPBU", "nearest_node": 9763831989, "dist_to_node_m": 30.979349839628295 }, "geometry": { "type": "Point", "coordinates": [ 107.589208900000017, -6.89509955 ] } },
{ "type": "Feature", "properties": { "nama": "Pertamina", "klaster": "A_SPBU", "nearest_node": 6637726062, "dist_to_node_m": 36.985291965304846 }, "geometry": { "type": "Point", "coordinates": [ 107.62716115, -6.89914435 ] } },
{ "type": "Feature", "properties": { "nama": "Pertamina", "klaster": "A_SPBU", "nearest_node": 5397823036, "dist_to_node_m": 28.472288382966376 }, "geometry": { "type": "Point", "coordinates": [ 107.64231705, -6.94293915 ] } },
{ "type": "Feature", "properties": { "nama": "Pertamina", "klaster": "A_SPBU", "nearest_node": 8424210299, "dist_to_node_m": 100.00544628036305 }, "geometry": { "type": "Point", "coordinates": [ 107.641902250000015, -6.94091185 ] } },
{ "type": "Feature", "properties": { "nama": "Pertamina", "klaster": "A_SPBU", "nearest_node": 6639639833, "dist_to_node_m": 67.962759404239804 }, "geometry": { "type": "Point", "coordinates": [ 107.612877869173687, -6.89011838468826 ] } },
{ "type": "Feature", "properties": { "nama": "Pertamina", "klaster": "A_SPBU", "nearest_node": 8418013648, "dist_to_node_m": 42.279066374909149 }, "geometry": { "type": "Point", "coordinates": [ 107.627871167172486, -6.923452328657986 ] } },
{ "type": "Feature", "properties": { "nama": "Pertamina", "klaster": "A_SPBU", "nearest_node": 2858054060, "dist_to_node_m": 93.415655355818117 }, "geometry": { "type": "Point", "coordinates": [ 107.710522543093887, -6.926051537620649 ] } },
{ "type": "Feature", "properties": { "nama": "Pertamina", "klaster": "A_SPBU", "nearest_node": 8123304882, "dist_to_node_m": 91.480505678483453 }, "geometry": { "type": "Point", "coordinates": [ 107.635330801763615, -6.947872685318443 ] } },
{ "type": "Feature", "properties": { "nama": "Pertamina", "klaster": "A_SPBU", "nearest_node": 11520711531, "dist_to_node_m": 20.411533429329655 }, "geometry": { "type": "Point", "coordinates": [ 107.60703145230984, -6.904366663663883 ] } },
{ "type": "Feature", "properties": { "nama": "Pertamina", "klaster": "A_SPBU", "nearest_node": 11041650667, "dist_to_node_m": 16.397810872443053 }, "geometry": { "type": "Point", "coordinates": [ 107.631681147076975, -6.9257067823209 ] } },
{ "type": "Feature", "properties": { "nama": "Pertamina", "klaster": "A_SPBU", "nearest_node": 10154700107, "dist_to_node_m": 36.649230632026224 }, "geometry": { "type": "Point", "coordinates": [ 107.63390030770077, -6.913408787702555 ] } },
{ "type": "Feature", "properties": { "nama": "Pertamina", "klaster": "A_SPBU", "nearest_node": 3272725789, "dist_to_node_m": 58.308973567114826 }, "geometry": { "type": "Point", "coordinates": [ 107.691505613354138, -6.9367882031074 ] } },
{ "type": "Feature", "properties": { "nama": "Pertamina", "klaster": "A_SPBU", "nearest_node": 5353648470, "dist_to_node_m": 28.904748788013126 }, "geometry": { "type": "Point", "coordinates": [ 107.677419, -6.94029505 ] } },
{ "type": "Feature", "properties": { "nama": "Pertamina", "klaster": "A_SPBU", "nearest_node": 11106971273, "dist_to_node_m": 84.415512510572881 }, "geometry": { "type": "Point", "coordinates": [ 107.714313148296426, -6.935944937445075 ] } },
{ "type": "Feature", "properties": { "nama": "Pertamina", "klaster": "A_SPBU", "nearest_node": 29358836, "dist_to_node_m": 91.477695852248146 }, "geometry": { "type": "Point", "coordinates": [ 107.596969921104318, -6.875360383923377 ] } },
{ "type": "Feature", "properties": { "nama": "SPBU Pertamina", "klaster": "A_SPBU", "nearest_node": 5355891555, "dist_to_node_m": 32.28869247339761 }, "geometry": { "type": "Point", "coordinates": [ 107.603751309534047, -6.930293622041833 ] } },
{ "type": "Feature", "properties": { "nama": "Pertamina", "klaster": "A_SPBU", "nearest_node": 3380407826, "dist_to_node_m": 61.613366651641762 }, "geometry": { "type": "Point", "coordinates": [ 107.696599192797578, -6.923894916749965 ] } },
{ "type": "Feature", "properties": { "nama": "Pertamina", "klaster": "A_SPBU", "nearest_node": 5460792486, "dist_to_node_m": 48.042863634097877 }, "geometry": { "type": "Point", "coordinates": [ 107.655379009464156, -6.956250934433629 ] } },
{ "type": "Feature", "properties": { "nama": "Pertamina", "klaster": "A_SPBU", "nearest_node": 5406429315, "dist_to_node_m": 126.62190873061094 }, "geometry": { "type": "Point", "coordinates": [ 107.650270956399581, -6.943129161696764 ] } },
{ "type": "Feature", "properties": { "nama": "Pertamina", "klaster": "A_SPBU", "nearest_node": 1658426557, "dist_to_node_m": 29.557362759353211 }, "geometry": { "type": "Point", "coordinates": [ 107.581363486459921, -6.882700275139375 ] } },
{ "type": "Feature", "properties": { "nama": "Pertamina", "klaster": "A_SPBU", "nearest_node": 9771195730, "dist_to_node_m": 43.378068706127024 }, "geometry": { "type": "Point", "coordinates": [ 107.641168567407561, -6.918324432426519 ] } },
{ "type": "Feature", "properties": { "nama": "Setrasari Mall", "klaster": "B_Mall", "nearest_node": 29356954, "dist_to_node_m": 116.59991076615273 }, "geometry": { "type": "Point", "coordinates": [ 107.5829931, -6.8807039 ] } },
{ "type": "Feature", "properties": { "nama": "Braga Citywalk", "klaster": "B_Mall", "nearest_node": 5358212387, "dist_to_node_m": 25.620474808893956 }, "geometry": { "type": "Point", "coordinates": [ 107.6084817, -6.9170486 ] } },
{ "type": "Feature", "properties": { "nama": "Ujungberung Town Square", "klaster": "B_Mall", "nearest_node": 9336898538, "dist_to_node_m": 218.88089647776232 }, "geometry": { "type": "Point", "coordinates": [ 107.6964906, -6.9151788 ] } },
{ "type": "Feature", "properties": { "nama": "Summarecon Mall Bandung", "klaster": "B_Mall", "nearest_node": 7216077665, "dist_to_node_m": 105.46062447252253 }, "geometry": { "type": "Point", "coordinates": [ 107.697993560198086, -6.955164985985325 ] } },
{ "type": "Feature", "properties": { "nama": "Istana Plaza", "klaster": "B_Mall", "nearest_node": 9751476048, "dist_to_node_m": 63.740755139106305 }, "geometry": { "type": "Point", "coordinates": [ 107.596896385518235, -6.9058378687843 ] } },
{ "type": "Feature", "properties": { "nama": "Bandung Indah Plaza", "klaster": "B_Mall", "nearest_node": 5358106596, "dist_to_node_m": 132.46364610128009 }, "geometry": { "type": "Point", "coordinates": [ 107.611283419042095, -6.908620555317284 ] } },
{ "type": "Feature", "properties": { "nama": "Cihampelas Walk (CiWalk)", "klaster": "B_Mall", "nearest_node": 1013390378, "dist_to_node_m": 163.42912352167843 }, "geometry": { "type": "Point", "coordinates": [ 107.605262051056357, -6.893960439182323 ] } },
{ "type": "Feature", "properties": { "nama": "Balubur Town Square", "klaster": "B_Mall", "nearest_node": 1658919945, "dist_to_node_m": 49.187687052025673 }, "geometry": { "type": "Point", "coordinates": [ 107.608519900657853, -6.89875714174046 ] } },
{ "type": "Feature", "properties": { "nama": "Trans Studio Mall", "klaster": "B_Mall", "nearest_node": 5395278850, "dist_to_node_m": 172.33088950189625 }, "geometry": { "type": "Point", "coordinates": [ 107.636671825817075, -6.925654689247456 ] } },
{ "type": "Feature", "properties": { "nama": "Kosambi Plaza", "klaster": "B_Mall", "nearest_node": 5360155496, "dist_to_node_m": 70.860259472854864 }, "geometry": { "type": "Point", "coordinates": [ 107.622096489501743, -6.919231276926529 ] } },
{ "type": "Feature", "properties": { "nama": "Plaza Parahyangan", "klaster": "B_Mall", "nearest_node": 7856163872, "dist_to_node_m": 40.48953911074738 }, "geometry": { "type": "Point", "coordinates": [ 107.606051548241396, -6.922630414015683 ] } },
{ "type": "Feature", "properties": { "nama": "Bandung Trade Mall", "klaster": "B_Mall", "nearest_node": 5392239537, "dist_to_node_m": 92.139579129055463 }, "geometry": { "type": "Point", "coordinates": [ 107.644343895306264, -6.911490234316354 ] } },
{ "type": "Feature", "properties": { "nama": "King's Mall", "klaster": "B_Mall", "nearest_node": 1013431927, "dist_to_node_m": 127.78827429744481 }, "geometry": { "type": "Point", "coordinates": [ 107.605038238688024, -6.922765516025354 ] } },
{ "type": "Feature", "properties": { "nama": "Istana BEC", "klaster": "B_Mall", "nearest_node": 364365279, "dist_to_node_m": 107.92429322259807 }, "geometry": { "type": "Point", "coordinates": [ 107.608918768305273, -6.908219336074711 ] } },
{ "type": "Feature", "properties": { "nama": "23 Paskal Shopping Center", "klaster": "B_Mall", "nearest_node": 5353968344, "dist_to_node_m": 118.43137594369801 }, "geometry": { "type": "Point", "coordinates": [ 107.594260501358946, -6.91537976165748 ] } },
{ "type": "Feature", "properties": { "nama": "Surapati Core", "klaster": "B_Mall", "nearest_node": 5391571114, "dist_to_node_m": 66.098228625910792 }, "geometry": { "type": "Point", "coordinates": [ 107.652534170090775, -6.901375992727915 ] } },
{ "type": "Feature", "properties": { "nama": "Living Plaza", "klaster": "B_Mall", "nearest_node": 2036066796, "dist_to_node_m": 119.96043443416154 }, "geometry": { "type": "Point", "coordinates": [ 107.611663592826446, -6.90086274831974 ] } },
{ "type": "Feature", "properties": { "nama": "Rumah Mode", "klaster": "B_Mall", "nearest_node": 5318313305, "dist_to_node_m": 80.45139372511241 }, "geometry": { "type": "Point", "coordinates": [ 107.599662436555249, -6.882677027053614 ] } },
{ "type": "Feature", "properties": { "nama": "Mall Festival Citylink", "klaster": "B_Mall", "nearest_node": 9596361930, "dist_to_node_m": 113.35473562777179 }, "geometry": { "type": "Point", "coordinates": [ 107.586403268394449, -6.929639934451701 ] } },
{ "type": "Feature", "properties": { "nama": "Bandung Trade Center", "klaster": "B_Mall", "nearest_node": 5460927300, "dist_to_node_m": 81.303480997045469 }, "geometry": { "type": "Point", "coordinates": [ 107.584897619707888, -6.893383905668379 ] } },
{ "type": "Feature", "properties": { "nama": "Riau Junction", "klaster": "B_Mall", "nearest_node": 2520649169, "dist_to_node_m": 68.6909872750673 }, "geometry": { "type": "Point", "coordinates": [ 107.612255074327749, -6.906598881950901 ] } },
{ "type": "Feature", "properties": { "nama": "Miko Mall", "klaster": "B_Mall", "nearest_node": 11237562460, "dist_to_node_m": 93.340869085121568 }, "geometry": { "type": "Point", "coordinates": [ 107.581139905391481, -6.960183723527714 ] } },
{ "type": "Feature", "properties": { "nama": "Living Plaza", "klaster": "B_Mall", "nearest_node": 11138593909, "dist_to_node_m": 49.896872568197516 }, "geometry": { "type": "Point", "coordinates": [ 107.59783572862807, -6.906023654631979 ] } },
{ "type": "Feature", "properties": { "nama": "Paris Van Java", "klaster": "B_Mall", "nearest_node": 13049748546, "dist_to_node_m": 125.04922424057656 }, "geometry": { "type": "Point", "coordinates": [ 107.596010824085596, -6.889273891179177 ] } },
{ "type": "Feature", "properties": { "nama": "Metro Indah Mall", "klaster": "B_Mall", "nearest_node": 3862534143, "dist_to_node_m": 115.41808987671664 }, "geometry": { "type": "Point", "coordinates": [ 107.658732991368879, -6.942665012819828 ] } }
]
}
