{
"type": "FeatureCollection",
"name": "ground_truth_spklu",
"crs": { "type": "name", "properties": { "name": "urn:ogc:def:crs:OGC:1.3:CRS84" } },
"features": [
{ "type": "Feature", "properties": { "nama": "SPLU", "operator": null, "sumber": "OSM" }, "geometry": { "type": "Point", "coordinates": [ 107.6088493, -6.920398 ] } },
{ "type": "Feature", "properties": { "nama": "SPKLU", "operator": "Perusahaan Listrik Negara", "sumber": "OSM" }, "geometry": { "type": "Point", "coordinates": [ 107.5972977, -6.8790549 ] } },
{ "type": "Feature", "properties": { "nama": "SPKLU PLN UP3 Bandung", "operator": "Perusahaan Listrik Negara", "sumber": "OSM" }, "geometry": { "type": "Point", "coordinates": [ 107.6117933, -6.948835 ] } },
{ "type": "Feature", "properties": { "nama": "SPKLU", "operator": "Perusahaan Listrik Negara", "sumber": "OSM" }, "geometry": { "type": "Point", "coordinates": [ 107.6412038, -6.8992806 ] } },
{ "type": "Feature", "properties": { "nama": "SPKLU", "operator": "Perusahaan Listrik Negara", "sumber": "OSM" }, "geometry": { "type": "Point", "coordinates": [ 107.6949227, -6.9132524 ] } },
{ "type": "Feature", "properties": { "nama": null, "operator": null, "sumber": "OSM" }, "geometry": { "type": "Point", "coordinates": [ 107.6278989, -6.9382721 ] } },
{ "type": "Feature", "properties": { "nama": "Voltron", "operator": "Voltron", "sumber": "OSM" }, "geometry": { "type": "Point", "coordinates": [ 107.6935217, -6.9554353 ] } },
{ "type": "Feature", "properties": { "nama": "Voltron", "operator": null, "sumber": "OSM" }, "geometry": { "type": "Point", "coordinates": [ 107.6993112, -6.9541414 ] } },
{ "type": "Feature", "properties": { "nama": "SPKLU Hyundai Leuwipanjang (Khusus Kendaraan Hyundai)", "operator": "Hyundai", "sumber": "OSM" }, "geometry": { "type": "Point", "coordinates": [ 107.5987915, -6.9473868 ] } },
{ "type": "Feature", "properties": { "nama": null, "operator": "Perusahaan Listrik Negara", "sumber": "OSM" }, "geometry": { "type": "Point", "coordinates": [ 107.571417, -6.9338536 ] } },
{ "type": "Feature", "properties": { "nama": null, "operator": "Perusahaan Listrik Negara", "sumber": "OSM" }, "geometry": { "type": "Point", "coordinates": [ 107.6405768, -6.9540155 ] } },
{ "type": "Feature", "properties": { "nama": null, "operator": "Voltron", "sumber": "OSM" }, "geometry": { "type": "Point", "coordinates": [ 107.5944815, -6.9151951 ] } },
{ "type": "Feature", "properties": { "nama": null, "operator": "Perusahaan Listrik Negara", "sumber": "OSM" }, "geometry": { "type": "Point", "coordinates": [ 107.5787876, -6.9070715 ] } },
{ "type": "Feature", "properties": { "nama": null, "operator": null, "sumber": "OSM" }, "geometry": { "type": "Point", "coordinates": [ 107.6095898, -6.8908152 ] } },
{ "type": "Feature", "properties": { "nama": null, "operator": null, "sumber": "OSM" }, "geometry": { "type": "Point", "coordinates": [ 107.6403961, -6.9461869 ] } },
{ "type": "Feature", "properties": { "nama": null, "operator": "Pertamina", "sumber": "OSM" }, "geometry": { "type": "Point", "coordinates": [ 107.6127579, -6.8902045 ] } },
{ "type": "Feature", "properties": { "nama": null, "operator": "Voltron", "sumber": "OSM" }, "geometry": { "type": "Point", "coordinates": [ 107.6118761, -6.9022231 ] } },
{ "type": "Feature", "properties": { "nama": null, "operator": "Vinfast", "sumber": "OSM" }, "geometry": { "type": "Point", "coordinates": [ 107.6223621, -6.9367809 ] } },
{ "type": "Feature", "properties": { "nama": "Hotel Tera", "operator": "Daya Green", "sumber": "OpenChargeMap" }, "geometry": { "type": "Point", "coordinates": [ 107.6125627465874, -6.915849022803471 ] } },
{ "type": "Feature", "properties": { "nama": "Hotel Crowne Plaza Bandung", "operator": "Daya Green", "sumber": "OpenChargeMap" }, "geometry": { "type": "Point", "coordinates": [ 107.611902755898427, -6.917358276474218 ] } },
{ "type": "Feature", "properties": { "nama": "De Braga By Artotel", "operator": "Starvo (Indonesia)", "sumber": "OpenChargeMap" }, "geometry": { "type": "Point", "coordinates": [ 107.610153999998829, -6.920381999995868 ] } },
{ "type": "Feature", "properties": { "nama": "PLN ULP Braga Heritage", "operator": "PLN (Indonesia)", "sumber": "OpenChargeMap" }, "geometry": { "type": "Point", "coordinates": [ 107.6098575, -6.9201702 ] } },
{ "type": "Feature", "properties": { "nama": "Hotel Newton", "operator": "PLN (Indonesia)", "sumber": "OpenChargeMap" }, "geometry": { "type": "Point", "coordinates": [ 107.629891949727607, -6.914922349725245 ] } },
{ "type": "Feature", "properties": { "nama": "Balai Kota Bandung", "operator": "PLN (Indonesia)", "sumber": "OpenChargeMap" }, "geometry": { "type": "Point", "coordinates": [ 107.609513, -6.911711 ] } },
{ "type": "Feature", "properties": { "nama": "Hyundai Ahmad Yani", "operator": "PLN (Indonesia)", "sumber": "OpenChargeMap" }, "geometry": { "type": "Point", "coordinates": [ 107.63094805663593, -6.915214110669893 ] } },
{ "type": "Feature", "properties": { "nama": "PLN Icon Plus Bandung", "operator": "PLN (Indonesia)", "sumber": "OpenChargeMap" }, "geometry": { "type": "Point", "coordinates": [ 107.631235236950943, -6.908152971306123 ] } },
{ "type": "Feature", "properties": { "nama": "Hotel Mercure", "operator": "SSK", "sumber": "OpenChargeMap" }, "geometry": { "type": "Point", "coordinates": [ 107.629091986238109, -6.905047856676831 ] } },
{ "type": "Feature", "properties": { "nama": "Hyundai Cihampelas", "operator": "PLN (Indonesia)", "sumber": "OpenChargeMap" }, "geometry": { "type": "Point", "coordinates": [ 107.6046494, -6.9066505 ] } },
{ "type": "Feature", "properties": { "nama": "Moxy Hotel", "operator": "DAYA GREEN", "sumber": "OpenChargeMap" }, "geometry": { "type": "Point", "coordinates": [ 107.612197426327839, -6.900315937624697 ] } },
{ "type": "Feature", "properties": { "nama": "SPKLU One Stop Charging Surapati", "operator": "PLN (Indonesia)", "sumber": "OpenChargeMap" }, "geometry": { "type": "Point", "coordinates": [ 107.621008114745962, -6.899050654706116 ] } },
{ "type": "Feature", "properties": { "nama": "Trans Studio Mall Bandung", "operator": "PLN (Indonesia)", "sumber": "OpenChargeMap" }, "geometry": { "type": "Point", "coordinates": [ 107.63591380656726, -6.92649533803511 ] } },
{ "type": "Feature", "properties": { "nama": "PLN Purhalis UP2W III", "operator": "PLN (Indonesia)", "sumber": "OpenChargeMap" }, "geometry": { "type": "Point", "coordinates": [ 107.640519, -6.916572000000826 ] } },
{ "type": "Feature", "properties": { "nama": "BTN Buah Batu", "operator": "PLN (Indonesia)", "sumber": "OpenChargeMap" }, "geometry": { "type": "Point", "coordinates": [ 107.625540132999959, -6.940056349538651 ] } },
{ "type": "Feature", "properties": { "nama": "Cihampelas Walk", "operator": "PARKING PLUS", "sumber": "OpenChargeMap" }, "geometry": { "type": "Point", "coordinates": [ 107.605209, -6.894763 ] } },
{ "type": "Feature", "properties": { "nama": "RS Advent Bandung", "operator": "PLN (Indonesia)", "sumber": "OpenChargeMap" }, "geometry": { "type": "Point", "coordinates": [ 107.603451266731554, -6.891958914607201 ] } },
{ "type": "Feature", "properties": { "nama": "Malaga Resto", "operator": "PLN (Indonesia)", "sumber": "OpenChargeMap" }, "geometry": { "type": "Point", "coordinates": [ 107.612522851362314, -6.885534390420375 ] } },
{ "type": "Feature", "properties": { "nama": "BYD Arista Suci", "operator": "PLN (Indonesia)", "sumber": "OpenChargeMap" }, "geometry": { "type": "Point", "coordinates": [ 107.648053628109437, -6.901591206067692 ] } },
{ "type": "Feature", "properties": { "nama": "Wheels Coffee", "operator": "SSK", "sumber": "OpenChargeMap" }, "geometry": { "type": "Point", "coordinates": [ 107.61610497603715, -6.881643539619759 ] } },
{ "type": "Feature", "properties": { "nama": "Paris Van Java", "operator": "PARKING PLUS", "sumber": "OpenChargeMap" }, "geometry": { "type": "Point", "coordinates": [ 107.596447000008766, -6.888584000004002 ] } },
{ "type": "Feature", "properties": { "nama": "Farizon Arista Bandung", "operator": "PLN (Indonesia)", "sumber": "OpenChargeMap" }, "geometry": { "type": "Point", "coordinates": [ 107.596159342375358, -6.947220044867876 ] } },
{ "type": "Feature", "properties": { "nama": "Gallery Ciumbuleuit Apartment", "operator": "CHARGE+", "sumber": "OpenChargeMap" }, "geometry": { "type": "Point", "coordinates": [ 107.604613, -6.881231 ] } },
{ "type": "Feature", "properties": { "nama": "Zen Family Spa & Reflexology", "operator": "Daya Green", "sumber": "OpenChargeMap" }, "geometry": { "type": "Point", "coordinates": [ 107.596653, -6.884404 ] } },
{ "type": "Feature", "properties": { "nama": "Geowisata INN", "operator": "PLN (Indonesia)", "sumber": "OpenChargeMap" }, "geometry": { "type": "Point", "coordinates": [ 107.578369, -6.9175 ] } },
{ "type": "Feature", "properties": { "nama": "PLN ULP Bandung Barat", "operator": "PLN (Indonesia)", "sumber": "OpenChargeMap" }, "geometry": { "type": "Point", "coordinates": [ 107.5789747, -6.9086507 ] } },
{ "type": "Feature", "properties": { "nama": "Hemangini Hotel", "operator": "GoCaz", "sumber": "OpenChargeMap" }, "geometry": { "type": "Point", "coordinates": [ 107.599192045923019, -6.880776600957361 ] } },
{ "type": "Feature", "properties": { "nama": "Hyundai Pasteur", "operator": "PLN (Indonesia)", "sumber": "OpenChargeMap" }, "geometry": { "type": "Point", "coordinates": [ 107.5819782, -6.8927049 ] } },
{ "type": "Feature", "properties": { "nama": "McDonald's Pasir Koja", "operator": "Voltron (Indonesia)", "sumber": "OpenChargeMap" }, "geometry": { "type": "Point", "coordinates": [ 107.575536021384323, -6.930290172506247 ] } },
{ "type": "Feature", "properties": { "nama": "SPBU 34.401.35 Surya Sumantri", "operator": "MY PERTAMINA", "sumber": "OpenChargeMap" }, "geometry": { "type": "Point", "coordinates": [ 107.581640931947504, -6.889111477533461 ] } },
{ "type": "Feature", "properties": { "nama": "Swiss Bel Resort Dago", "operator": "ASTRA OTOPOWER", "sumber": "OpenChargeMap" }, "geometry": { "type": "Point", "coordinates": [ 107.625312, -6.86683 ] } },
{ "type": "Feature", "properties": { "nama": "Lasumi Car Wash & Coffee Shop", "operator": "PLN (Indonesia)", "sumber": "OpenChargeMap" }, "geometry": { "type": "Point", "coordinates": [ 107.674, -6.9048 ] } },
{ "type": "Feature", "properties": { "nama": "Apartemen Gateway Pasteur", "operator": "PLN (Indonesia)", "sumber": "OpenChargeMap" }, "geometry": { "type": "Point", "coordinates": [ 107.56658066209684, -6.889777143698225 ] } },
{ "type": "Feature", "properties": { "nama": "BYD Arista Soekarno Hatta", "operator": "PLN (Indonesia)", "sumber": "OpenChargeMap" }, "geometry": { "type": "Point", "coordinates": [ 107.675917833915079, -6.938639799669233 ] } },
{ "type": "Feature", "properties": { "nama": "Rest Area KM 147 A Tol Purbaleunyi", "operator": "PLN (Indonesia)", "sumber": "OpenChargeMap" }, "geometry": { "type": "Point", "coordinates": [ 107.681211, -6.967814 ] } },
{ "type": "Feature", "properties": { "nama": "Summarecon Mall Bandung", "operator": "Voltron (Indonesia)", "sumber": "OpenChargeMap" }, "geometry": { "type": "Point", "coordinates": [ 107.698051428676536, -6.954371373405266 ] } }
]
}
